      2.10          N: GNSS NAV DATA                        RINEX VERSION / TYPE
fic2rin                                 03/02/2020 00:20:28 PGM / RUN BY / DATE
                                                            END OF HEADER
16 20  3  1 22  0  0.0-1.302971504629e-04-4.206412995700e-12 0.000000000000e+00
    8.200000000000e+01 3.365625000000e+01 4.294821753708e-09 2.728304483324e+00
    1.640990376472e-06 1.146719208919e-02 4.814937710762e-06 5.153723861694e+03
    7.920000000000e+04-6.519258022308e-08 2.566086762557e+00-1.862645149231e-07
    9.796773694148e-01 2.983750000000e+02 6.074847565214e-01-7.915686862988e-09
   -2.500104139373e-12 1.000000000000e+00 2.095000000000e+03 0.000000000000e+00
    2.400000000000e+00 0.000000000000e+00-1.071020960808e-08 8.200000000000e+01
    7.200000000000e+04 4.000000000000e+00
14 20  3  1 22  0  0.0-2.907542511821e-05 2.501110429876e-12 0.000000000000e+00
    9.200000000000e+01-1.093750000000e+01 4.497687346731e-09 1.559838199945e+00
   -5.792826414108e-07 1.101688656490e-02 9.020790457726e-06 5.153619823456e+03
    7.920000000000e+04-2.309679985046e-07 4.626355569822e-01-1.750886440277e-07
    9.607510803503e-01 2.049375000000e+02-1.928825108748e+00-8.037477650349e-09
   -1.082187934614e-10 1.000000000000e+00 2.095000000000e+03 0.000000000000e+00
    2.400000000000e+00 0.000000000000e+00-9.778887033463e-09 9.200000000000e+01
    7.200000000000e+04 4.000000000000e+00
15 20  3  1 22  0  0.0-2.479157410562e-04 2.614797267597e-12 0.000000000000e+00
    7.700000000000e+01-2.175000000000e+01 5.403796518387e-09 9.568757971920e-01
   -1.052394509315e-06 1.216202613432e-02 7.849186658859e-06 5.153641101837e+03
    7.920000000000e+04-1.452863216400e-07 2.802758490598e-01 4.284083843231e-08
    9.285371385560e-01 2.137187500000e+02 8.665702445176e-01-8.593215084758e-09
   -2.450102056585e-10 1.000000000000e+00 2.095000000000e+03 0.000000000000e+00
    2.400000000000e+00 0.000000000000e+00-1.117587089539e-08 7.700000000000e+01
    7.200000000000e+04 4.000000000000e+00
25 20  3  1 22  0  0.0-1.102592796087e-05 1.705302565824e-12 0.000000000000e+00
    9.900000000000e+01 3.631250000000e+01 4.594834250433e-09-2.008475335208e+00
    1.862645149231e-06 9.159960318357e-03 4.768371582031e-06 5.153586286545e+03
    7.920000000000e+04 1.341104507446e-07 2.479389826481e+00-3.725290298462e-09
    9.667043406246e-01 2.898437500000e+02 9.048933263592e-01-8.121409717885e-09
    1.132190017402e-10 1.000000000000e+00 2.095000000000e+03 0.000000000000e+00
    2.400000000000e+00 0.000000000000e+00 5.587935447693e-09 9.900000000000e+01
    7.200000000000e+04 4.000000000000e+00
21 20  3  1 22  0  0.0-3.366963937879e-05 5.229594535194e-12 0.000000000000e+00
    8.200000000000e+01-1.578125000000e+01 4.440899266994e-09-2.185003891165e+00
   -6.724148988724e-07 2.485697460361e-02 8.247792720795e-06 5.153554880142e+03
    7.920000000000e+04 2.942979335785e-07-1.776665090215e+00 3.613531589508e-07
    9.517892193271e-01 2.105312500000e+02-1.356579967024e+00-7.738893784561e-09
    8.678932940965e-11 1.000000000000e+00 2.095000000000e+03 0.000000000000e+00
    3.400000000000e+00 0.000000000000e+00-1.024454832077e-08 8.200000000000e+01
    7.200000000000e+04 4.000000000000e+00
32 20  3  1 22  0  0.0 2.257665619254e-04 9.436007530894e-12 0.000000000000e+00
    5.900000000000e+01-1.340625000000e+01 4.527331438670e-09 2.577289865279e+00
   -5.532056093216e-07 3.643144038506e-03 8.720904588699e-06 5.153688350677e+03
    7.920000000000e+04-3.352761268616e-08 3.754819081229e-01-4.470348358154e-08
    9.571391268351e-01 2.080312500000e+02-2.512861219510e+00-7.954617056015e-09
   -9.000374901741e-11 1.000000000000e+00 2.095000000000e+03 0.000000000000e+00
    2.400000000000e+00 0.000000000000e+00 4.656612873077e-10 5.900000000000e+01
    7.200000000000e+04 4.000000000000e+00
20 20  3  1 22  0  0.0 5.278764292598e-04 0.000000000000e+00 0.000000000000e+00
    5.100000000000e+01-1.162500000000e+01 5.183073038654e-09-8.594123926272e-01
   -6.314367055893e-07 5.032702814788e-03 6.718561053276e-06 5.153625957489e+03
    7.920000000000e+04-1.359730958939e-07-7.944928398272e-01-1.080334186554e-07
    9.331937779637e-01 2.381875000000e+02 2.608485841380e+00-8.401421381494e-09
    2.064371703653e-10 1.000000000000e+00 2.095000000000e+03 0.000000000000e+00
    2.400000000000e+00 0.000000000000e+00-8.847564458847e-09 5.100000000000e+01
    7.200000000000e+04 4.000000000000e+00
18 20  3  1 22  0  0.0 5.136243999004e-06 1.705302565824e-12 0.000000000000e+00
    3.200000000000e+01-2.787500000000e+01 4.622692553700e-09-6.451443377198e-01
   -1.393258571625e-06 1.570156298112e-02 8.871778845787e-06 5.153638181686e+03
    7.920000000000e+04-1.769512891769e-07-1.765996842046e+00 1.266598701477e-07
    9.574009525983e-01 2.071562500000e+02 1.455772283285e+00-8.412493271255e-09
    1.578637185147e-10 1.000000000000e+00 2.095000000000e+03 0.000000000000e+00
    2.400000000000e+00 6.300000000000e+01-5.587935447693e-09 3.200000000000e+01
    7.200000000000e+04 4.000000000000e+00
 4 20  3  1 22  0  0.0-5.629984661937e-05-5.343281372916e-12 0.000000000000e+00
    6.600000000000e+01-7.468750000000e+00 4.545189325379e-09 8.955773455341e-01
   -3.594905138016e-07 5.812612362206e-04 8.689239621162e-06 5.153713409424e+03
    7.920000000000e+04-1.490116119385e-08 4.147025575004e-01 3.352761268616e-08
    9.602715533589e-01 2.116562500000e+02-2.702815659327e+00-7.972117784991e-09
   -1.635782422618e-10 1.000000000000e+00 2.095000000000e+03 0.000000000000e+00
    2.400000000000e+00 0.000000000000e+00-4.190951585770e-09 8.340000000000e+02
    7.206000000000e+04 4.000000000000e+00
21 20  3  1 21 59 44.0-3.367010504007e-05 5.343281372916e-12 0.000000000000e+00
    1.000000000000e+00-1.578125000000e+01 4.440899266994e-09-2.187337665359e+00
   -6.724148988724e-07 2.485697262455e-02 8.247792720795e-06 5.153554880142e+03
    7.918400000000e+04 2.942979335785e-07-1.776664961478e+00 3.613531589508e-07
    9.517892134754e-01 2.105312500000e+02-1.356580044558e+00-7.738893784561e-09
    8.678932940965e-11 1.000000000000e+00 2.095000000000e+03 0.000000000000e+00
    2.400000000000e+00 0.000000000000e+00-1.024454832077e-08 1.000000000000e+00
    7.362000000000e+04 4.000000000000e+00
14 20  3  1 21 59 44.0-2.907728776336e-05 2.501110429876e-12 0.000000000000e+00
    1.300000000000e+01-1.093750000000e+01 4.497687346731e-09 1.557504269219e+00
   -5.792826414108e-07 1.101688540075e-02 9.020790457726e-06 5.153619813919e+03
    7.918400000000e+04-2.309679985046e-07 4.626356637752e-01-1.750886440277e-07
    9.607510832761e-01 2.049375000000e+02-1.928824911254e+00-8.037477650349e-09
   -1.082187934614e-10 1.000000000000e+00 2.095000000000e+03 0.000000000000e+00
    2.400000000000e+00 0.000000000000e+00-9.778887033463e-09 1.300000000000e+01
    7.395000000000e+04 4.000000000000e+00
 7 20  3  1 21 59 44.0-2.262699417770e-04-8.526512829121e-12 0.000000000000e+00
    6.100000000000e+01 6.525000000000e+01 4.677694844766e-09-1.073728751627e+00
    3.516674041748e-06 1.338399201632e-02 9.046867489815e-06 5.153690849304e+03
    7.918400000000e+04 2.942979335785e-07 1.442083571563e+00 1.266598701477e-07
    9.533805026161e-01 1.972812500000e+02-2.415228891795e+00-8.103194673441e-09
    3.678724662220e-11 1.000000000000e+00 2.095000000000e+03 0.000000000000e+00
    2.400000000000e+00 0.000000000000e+00-1.117587089539e-08 6.100000000000e+01
    7.404000000000e+04 4.000000000000e+00
14 20  3  1 23 59 44.0-2.905959263444e-05 2.501110429876e-12 0.000000000000e+00
    1.400000000000e+01-1.225000000000e+01 4.345538151964e-09 2.607723001284e+00
   -6.370246410370e-07 1.101701846346e-02 8.968636393547e-06 5.153619581223e+03
    8.638400000000e+04 7.636845111847e-08 4.625792287845e-01-9.872019290924e-08
    9.607515996862e-01 2.045625000000e+02-1.928830735131e+00-7.737822311358e-09
   -1.289339420448e-10 1.000000000000e+00 2.095000000000e+03 0.000000000000e+00
    2.400000000000e+00 0.000000000000e+00-9.778887033463e-09 1.400000000000e+01
    7.920000000000e+04 4.000000000000e+00
 7 20  3  1 23 59 44.0-2.263309434056e-04-8.526512829121e-12 0.000000000000e+00
    6.200000000000e+01 6.631250000000e+01 4.677337687032e-09-2.349821234915e-02
    3.552064299583e-06 1.338501111604e-02 8.879229426384e-06 5.153693307877e+03
    8.638400000000e+04 4.656612873077e-08 1.442024301437e+00 2.030283212662e-07
    9.533798384513e-01 2.066875000000e+02-2.415288747088e+00-8.301060058185e-09
    2.035799084918e-11 1.000000000000e+00 2.095000000000e+03 0.000000000000e+00
    2.400000000000e+00 0.000000000000e+00-1.117587089539e-08 6.200000000000e+01
    7.920000000000e+04 4.000000000000e+00
21 20  3  1 23 59 44.0-3.363192081451e-05 5.229594535194e-12 0.000000000000e+00
    2.000000000000e+00-2.009375000000e+01 4.749126391605e-09-1.137067859898e+00
   -9.480863809586e-07 2.485653990880e-02 8.579343557358e-06 5.153555715561e+03
    8.638400000000e+04-4.973262548447e-07-1.776723905374e+00 1.918524503708e-07
    9.517864485602e-01 2.146875000000e+02-1.356596340003e+00-8.523212168855e-09
    1.453631978178e-10 1.000000000000e+00 2.095000000000e+03 0.000000000000e+00
    2.400000000000e+00 0.000000000000e+00-1.024454832077e-08 2.000000000000e+00
    7.920000000000e+04 4.000000000000e+00
 2 20  3  2  0  0  0.0-4.143845289946e-04-6.821210263297e-12 0.000000000000e+00
    5.900000000000e+01-5.290625000000e+01 4.568761735836e-09 9.836819321066e-01
   -2.894550561905e-06 1.980283344164e-02 9.039416909218e-06 5.153649841309e+03
    8.640000000000e+04-3.427267074585e-07-1.779435766356e+00-1.750886440277e-07
    9.578771251185e-01 2.124687500000e+02-1.652490539470e+00-8.372491605025e-09
    2.285809498855e-11 1.000000000000e+00 2.095000000000e+03 0.000000000000e+00
    2.400000000000e+00 0.000000000000e+00-1.769512891769e-08 5.900000000000e+01
    7.920000000000e+04 4.000000000000e+00
